CCSDS_OMM_VERS = 2.0
CREATION_DATE  = 
ORIGINATOR     = 

OBJECT_NAME    = DELTA 2 R/B(1)
OBJECT_ID      = 1990-008B
CENTER_NAME    = EARTH
REF_FRAME      = TEME
TIME_SYSTEM    = UTC
MEAN_ELEMENT_THEORY = SGP/SGP4

EPOCH          = 2025-12-05T07:39:19.514304
MEAN_MOTION    = 15.44396047
ECCENTRICITY   = .01120379
INCLINATION    = 35.6069
RA_OF_ASC_NODE = 68.4238
ARG_OF_PERICENTER = 110.7477
MEAN_ANOMALY   = 250.5302

EPHEMERIS_TYPE = 0
CLASSIFICATION_TYPE = U
NORAD_CAT_ID   = 20453
ELEMENT_SET_NO = 999
REV_AT_EPOCH   = 91148
BSTAR          = .85375899E-3
MEAN_MOTION_DOT = .51911E-3
MEAN_MOTION_DDOT = 0

CCSDS_OMM_VERS = 2.0
CREATION_DATE  = 
ORIGINATOR     = 

OBJECT_NAME    = COSMOS 2058
OBJECT_ID      = 1990-010A
CENTER_NAME    = EARTH
REF_FRAME      = TEME
TIME_SYSTEM    = UTC
MEAN_ELEMENT_THEORY = SGP/SGP4

EPOCH          = 2025-12-05T04:56:01.919328
MEAN_MOTION    = 15.10359068
ECCENTRICITY   = .00083989
INCLINATION    = 82.4634
RA_OF_ASC_NODE = 140.4417
ARG_OF_PERICENTER = 305.1903
MEAN_ANOMALY   = 54.8540

EPHEMERIS_TYPE = 0
CLASSIFICATION_TYPE = U
NORAD_CAT_ID   = 20465
ELEMENT_SET_NO = 999
REV_AT_EPOCH   = 92797
BSTAR          = .4946174E-3
MEAN_MOTION_DOT = .8149E-4
MEAN_MOTION_DDOT = 0

CCSDS_OMM_VERS = 2.0
CREATION_DATE  = 
ORIGINATOR     = 

OBJECT_NAME    = SL-14 R/B
OBJECT_ID      = 1990-010B
CENTER_NAME    = EARTH
REF_FRAME      = TEME
TIME_SYSTEM    = UTC
MEAN_ELEMENT_THEORY = SGP/SGP4

EPOCH          = 2025-12-05T07:49:08.360544
MEAN_MOTION    = 14.83460749
ECCENTRICITY   = .00183626
INCLINATION    = 82.5021
RA_OF_ASC_NODE = 356.0107
ARG_OF_PERICENTER = 249.2906
MEAN_ANOMALY   = 110.6341

EPHEMERIS_TYPE = 0
CLASSIFICATION_TYPE = U
NORAD_CAT_ID   = 20466
ELEMENT_SET_NO = 999
REV_AT_EPOCH   = 91449
BSTAR          = .98870095E-4
MEAN_MOTION_DOT = .838E-5
MEAN_MOTION_DDOT = 0

CCSDS_OMM_VERS = 2.0
CREATION_DATE  = 
ORIGINATOR     = 

OBJECT_NAME    = SL-14 R/B
OBJECT_ID      = 1990-018B
CENTER_NAME    = EARTH
REF_FRAME      = TEME
TIME_SYSTEM    = UTC
MEAN_ELEMENT_THEORY = SGP/SGP4

EPOCH          = 2025-12-05T07:41:25.198656
MEAN_MOTION    = 14.82034472
ECCENTRICITY   = .00175208
INCLINATION    = 82.5203
RA_OF_ASC_NODE = 311.2997
ARG_OF_PERICENTER = 46.5104
MEAN_ANOMALY   = 313.7563

EPHEMERIS_TYPE = 0
CLASSIFICATION_TYPE = U
NORAD_CAT_ID   = 20511
ELEMENT_SET_NO = 999
REV_AT_EPOCH   = 90860
BSTAR          = .11219605E-3
MEAN_MOTION_DOT = .916E-5
MEAN_MOTION_DDOT = 0

CCSDS_OMM_VERS = 2.0
CREATION_DATE  = 
ORIGINATOR     = 

OBJECT_NAME    = HST
OBJECT_ID      = 1990-037B
CENTER_NAME    = EARTH
REF_FRAME      = TEME
TIME_SYSTEM    = UTC
MEAN_ELEMENT_THEORY = SGP/SGP4

EPOCH          = 2025-12-05T06:44:31.368768
MEAN_MOTION    = 15.27889575
ECCENTRICITY   = .00020162
INCLINATION    = 28.4702
RA_OF_ASC_NODE = 323.2508
ARG_OF_PERICENTER = 153.2318
MEAN_ANOMALY   = 206.8381

EPHEMERIS_TYPE = 0
CLASSIFICATION_TYPE = U
NORAD_CAT_ID   = 20580
ELEMENT_SET_NO = 999
REV_AT_EPOCH   = 75885
BSTAR          = .43905019E-3
MEAN_MOTION_DOT = .12538E-3
MEAN_MOTION_DDOT = 0

CCSDS_OMM_VERS = 2.0
CREATION_DATE  = 
ORIGINATOR     = 

OBJECT_NAME    = SL-16 R/B
OBJECT_ID      = 1990-046B
CENTER_NAME    = EARTH
REF_FRAME      = TEME
TIME_SYSTEM    = UTC
MEAN_ELEMENT_THEORY = SGP/SGP4

EPOCH          = 2025-12-04T19:52:50.277216
MEAN_MOTION    = 14.14999306
ECCENTRICITY   = .00118851
INCLINATION    = 70.9984
RA_OF_ASC_NODE = 137.1362
ARG_OF_PERICENTER = 87.8797
MEAN_ANOMALY   = 272.3686

EPHEMERIS_TYPE = 0
CLASSIFICATION_TYPE = U
NORAD_CAT_ID   = 20625
ELEMENT_SET_NO = 999
REV_AT_EPOCH   = 83497
BSTAR          = .16443326E-3
MEAN_MOTION_DOT = .271E-5
MEAN_MOTION_DDOT = 0

CCSDS_OMM_VERS = 2.0
CREATION_DATE  = 
ORIGINATOR     = 

OBJECT_NAME    = COSMOS 2084
OBJECT_ID      = 1990-055A
CENTER_NAME    = EARTH
REF_FRAME      = TEME
TIME_SYSTEM    = UTC
MEAN_ELEMENT_THEORY = SGP/SGP4

EPOCH          = 2025-12-05T06:13:14.700288
MEAN_MOTION    = 15.04944158
ECCENTRICITY   = .00328773
INCLINATION    = 62.7914
RA_OF_ASC_NODE = 297.4799
ARG_OF_PERICENTER = 173.7289
MEAN_ANOMALY   = 186.4229

EPHEMERIS_TYPE = 0
CLASSIFICATION_TYPE = U
NORAD_CAT_ID   = 20663
ELEMENT_SET_NO = 999
REV_AT_EPOCH   = 92210
BSTAR          = .42427413E-3
MEAN_MOTION_DOT = .5913E-4
MEAN_MOTION_DDOT = 0

CCSDS_OMM_VERS = 2.0
CREATION_DATE  = 
ORIGINATOR     = 

OBJECT_NAME    = SL-6 R/B(2)
OBJECT_ID      = 1990-055D
CENTER_NAME    = EARTH
REF_FRAME      = TEME
TIME_SYSTEM    = UTC
MEAN_ELEMENT_THEORY = SGP/SGP4

EPOCH          = 2025-12-05T02:47:41.596224
MEAN_MOTION    = 15.03024289
ECCENTRICITY   = .00120118
INCLINATION    = 62.7830
RA_OF_ASC_NODE = 215.3175
ARG_OF_PERICENTER = 302.7582
MEAN_ANOMALY   = 57.2358

EPHEMERIS_TYPE = 0
CLASSIFICATION_TYPE = U
NORAD_CAT_ID   = 20666
ELEMENT_SET_NO = 999
REV_AT_EPOCH   = 92397
BSTAR          = .36724746E-3
MEAN_MOTION_DOT = .4782E-4
MEAN_MOTION_DDOT = 0

CCSDS_OMM_VERS = 2.0
CREATION_DATE  = 
ORIGINATOR     = 

OBJECT_NAME    = SL-8 R/B
OBJECT_ID      = 1990-078B
CENTER_NAME    = EARTH
REF_FRAME      = TEME
TIME_SYSTEM    = UTC
MEAN_ELEMENT_THEORY = SGP/SGP4

EPOCH          = 2025-12-05T06:07:54.679872
MEAN_MOTION    = 14.85472876
ECCENTRICITY   = .03744414
INCLINATION    = 82.9040
RA_OF_ASC_NODE = 336.0078
ARG_OF_PERICENTER = 331.0806
MEAN_ANOMALY   = 27.0102

EPHEMERIS_TYPE = 0
CLASSIFICATION_TYPE = U
NORAD_CAT_ID   = 20775
ELEMENT_SET_NO = 999
REV_AT_EPOCH   = 79526
BSTAR          = .10564599E-2
MEAN_MOTION_DOT = .34122E-3
MEAN_MOTION_DDOT = 0

CCSDS_OMM_VERS = 2.0
CREATION_DATE  = 
ORIGINATOR     = 

OBJECT_NAME    = SL-8 R/B
OBJECT_ID      = 1991-006B
CENTER_NAME    = EARTH
REF_FRAME      = TEME
TIME_SYSTEM    = UTC
MEAN_ELEMENT_THEORY = SGP/SGP4

EPOCH          = 2025-12-05T06:43:49.706688
MEAN_MOTION    = 13.77488841
ECCENTRICITY   = .00214689
INCLINATION    = 82.9430
RA_OF_ASC_NODE = 240.2608
ARG_OF_PERICENTER = 301.9034
MEAN_ANOMALY   = 174.8450

EPHEMERIS_TYPE = 0
CLASSIFICATION_TYPE = U
NORAD_CAT_ID   = 21088
ELEMENT_SET_NO = 999
REV_AT_EPOCH   = 75107
BSTAR          = .11084589E-3
MEAN_MOTION_DOT = .125E-5
MEAN_MOTION_DDOT = 0

CCSDS_OMM_VERS = 2.0
CREATION_DATE  = 
ORIGINATOR     = 

OBJECT_NAME    = OKEAN-3
OBJECT_ID      = 1991-039A
CENTER_NAME    = EARTH
REF_FRAME      = TEME
TIME_SYSTEM    = UTC
MEAN_ELEMENT_THEORY = SGP/SGP4

EPOCH          = 2025-12-05T07:08:33.285408
MEAN_MOTION    = 15.04043066
ECCENTRICITY   = .00129988
INCLINATION    = 82.5187
RA_OF_ASC_NODE = 68.2507
ARG_OF_PERICENTER = 293.0614
MEAN_ANOMALY   = 66.9241

EPHEMERIS_TYPE = 0
CLASSIFICATION_TYPE = U
NORAD_CAT_ID   = 21397
ELEMENT_SET_NO = 999
REV_AT_EPOCH   = 85084
BSTAR          = .45398719E-3
MEAN_MOTION_DOT = .6316E-4
MEAN_MOTION_DDOT = 0

CCSDS_OMM_VERS = 2.0
CREATION_DATE  = 
ORIGINATOR     = 

OBJECT_NAME    = COSMOS 2151
OBJECT_ID      = 1991-042A
CENTER_NAME    = EARTH
REF_FRAME      = TEME
TIME_SYSTEM    = UTC
MEAN_ELEMENT_THEORY = SGP/SGP4

EPOCH          = 2025-12-05T06:48:28.720800
MEAN_MOTION    = 14.99642651
ECCENTRICITY   = .00132739
INCLINATION    = 82.4955
RA_OF_ASC_NODE = 174.6881
ARG_OF_PERICENTER = 24.3700
MEAN_ANOMALY   = 335.8148

EPHEMERIS_TYPE = 0
CLASSIFICATION_TYPE = U
NORAD_CAT_ID   = 21422
ELEMENT_SET_NO = 999
REV_AT_EPOCH   = 84904
BSTAR          = .30550855E-3
MEAN_MOTION_DOT = .3795E-4
MEAN_MOTION_DDOT = 0

